CCSDS_OMM_VERS = 2.0
CREATION_DATE  = 
ORIGINATOR     = 

OBJECT_NAME    = CYGNUS NG-23
OBJECT_ID      = 2025-208A
CENTER_NAME    = EARTH
REF_FRAME      = TEME
TIME_SYSTEM    = UTC
MEAN_ELEMENT_THEORY = SGP/SGP4

EPOCH          = 2025-12-10T03:42:55.481184
MEAN_MOTION    = 15.49465664
ECCENTRICITY   = .0003395
INCLINATION    = 51.6306
RA_OF_ASC_NODE = 155.2782
ARG_OF_PERICENTER = 228.7876
MEAN_ANOMALY   = 131.2820

EPHEMERIS_TYPE = 0
CLASSIFICATION_TYPE = U
NORAD_CAT_ID   = 65616
ELEMENT_SET_NO = 999
REV_AT_EPOCH   = 22
BSTAR          = .27248017E-3
MEAN_MOTION_DOT = .14837E-3
MEAN_MOTION_DDOT = 0

CCSDS_OMM_VERS = 2.0
CREATION_DATE  = 
ORIGINATOR     = 

OBJECT_NAME    = DRAGONFLY
OBJECT_ID      = 1998-067XH
CENTER_NAME    = EARTH
REF_FRAME      = TEME
TIME_SYSTEM    = UTC
MEAN_ELEMENT_THEORY = SGP/SGP4

EPOCH          = 2025-12-10T10:46:42.048192
MEAN_MOTION    = 15.70885293
ECCENTRICITY   = .0006568
INCLINATION    = 51.6250
RA_OF_ASC_NODE = 147.4857
ARG_OF_PERICENTER = 262.4746
MEAN_ANOMALY   = 97.5505

EPHEMERIS_TYPE = 0
CLASSIFICATION_TYPE = U
NORAD_CAT_ID   = 65729
ELEMENT_SET_NO = 999
REV_AT_EPOCH   = 1280
BSTAR          = .16627E-2
MEAN_MOTION_DOT = .217091E-2
MEAN_MOTION_DDOT = 0

CCSDS_OMM_VERS = 2.0
CREATION_DATE  = 
ORIGINATOR     = 

OBJECT_NAME    = 1998-067XK
OBJECT_ID      = 1998-067XK
CENTER_NAME    = EARTH
REF_FRAME      = TEME
TIME_SYSTEM    = UTC
MEAN_ELEMENT_THEORY = SGP/SGP4

EPOCH          = 2025-12-10T11:59:54.530016
MEAN_MOTION    = 15.65134348
ECCENTRICITY   = .0005181
INCLINATION    = 51.6281
RA_OF_ASC_NODE = 148.5918
ARG_OF_PERICENTER = 231.8122
MEAN_ANOMALY   = 128.2407

EPHEMERIS_TYPE = 0
CLASSIFICATION_TYPE = U
NORAD_CAT_ID   = 65731
ELEMENT_SET_NO = 999
REV_AT_EPOCH   = 1279
BSTAR          = .12259E-2
MEAN_MOTION_DOT = .124892E-2
MEAN_MOTION_DDOT = 0

CCSDS_OMM_VERS = 2.0
CREATION_DATE  = 
ORIGINATOR     = 

OBJECT_NAME    = RSP-03
OBJECT_ID      = 1998-067XL
CENTER_NAME    = EARTH
REF_FRAME      = TEME
TIME_SYSTEM    = UTC
MEAN_ELEMENT_THEORY = SGP/SGP4

EPOCH          = 2025-12-10T12:12:40.904064
MEAN_MOTION    = 15.67837200
ECCENTRICITY   = .0005896
INCLINATION    = 51.6265
RA_OF_ASC_NODE = 147.8923
ARG_OF_PERICENTER = 236.0858
MEAN_ANOMALY   = 123.9578

EPHEMERIS_TYPE = 0
CLASSIFICATION_TYPE = U
NORAD_CAT_ID   = 65732
ELEMENT_SET_NO = 999
REV_AT_EPOCH   = 1281
BSTAR          = .13955E-2
MEAN_MOTION_DOT = .159362E-2
MEAN_MOTION_DDOT = 0

CCSDS_OMM_VERS = 2.0
CREATION_DATE  = 
ORIGINATOR     = 

OBJECT_NAME    = GHS-01
OBJECT_ID      = 1998-067XM
CENTER_NAME    = EARTH
REF_FRAME      = TEME
TIME_SYSTEM    = UTC
MEAN_ELEMENT_THEORY = SGP/SGP4

EPOCH          = 2025-12-09T18:28:18.827904
MEAN_MOTION    = 15.73188946
ECCENTRICITY   = .00069378
INCLINATION    = 51.6282
RA_OF_ASC_NODE = 150.4557
ARG_OF_PERICENTER = 260.0742
MEAN_ANOMALY   = 99.9474

EPHEMERIS_TYPE = 0
CLASSIFICATION_TYPE = U
NORAD_CAT_ID   = 65733
ELEMENT_SET_NO = 999
REV_AT_EPOCH   = 1271
BSTAR          = .15641531E-2
MEAN_MOTION_DOT = .225395E-2
MEAN_MOTION_DDOT = 0

CCSDS_OMM_VERS = 2.0
CREATION_DATE  = 
ORIGINATOR     = 

OBJECT_NAME    = YOTSUBA-KULOVER
OBJECT_ID      = 1998-067XN
CENTER_NAME    = EARTH
REF_FRAME      = TEME
TIME_SYSTEM    = UTC
MEAN_ELEMENT_THEORY = SGP/SGP4

EPOCH          = 2025-12-10T06:39:08.151552
MEAN_MOTION    = 15.58984772
ECCENTRICITY   = .00015635
INCLINATION    = 51.6286
RA_OF_ASC_NODE = 152.3518
ARG_OF_PERICENTER = 229.1670
MEAN_ANOMALY   = 130.9187

EPHEMERIS_TYPE = 0
CLASSIFICATION_TYPE = U
NORAD_CAT_ID   = 65941
ELEMENT_SET_NO = 999
REV_AT_EPOCH   = 947
BSTAR          = .11499536E-2
MEAN_MOTION_DOT = .91734E-3
MEAN_MOTION_DDOT = 0

CCSDS_OMM_VERS = 2.0
CREATION_DATE  = 
ORIGINATOR     = 

OBJECT_NAME    = BOTAN
OBJECT_ID      = 1998-067XP
CENTER_NAME    = EARTH
REF_FRAME      = TEME
TIME_SYSTEM    = UTC
MEAN_ELEMENT_THEORY = SGP/SGP4

EPOCH          = 2025-12-09T18:37:41.598624
MEAN_MOTION    = 15.62021860
ECCENTRICITY   = .00035332
INCLINATION    = 51.6281
RA_OF_ASC_NODE = 154.2559
ARG_OF_PERICENTER = 214.7567
MEAN_ANOMALY   = 145.3196

EPHEMERIS_TYPE = 0
CLASSIFICATION_TYPE = U
NORAD_CAT_ID   = 65942
ELEMENT_SET_NO = 999
REV_AT_EPOCH   = 940
BSTAR          = .13930428E-2
MEAN_MOTION_DOT = .125565E-2
MEAN_MOTION_DDOT = 0

CCSDS_OMM_VERS = 2.0
CREATION_DATE  = 
ORIGINATOR     = 

OBJECT_NAME    = E-KAGAKU-1
OBJECT_ID      = 1998-067XQ
CENTER_NAME    = EARTH
REF_FRAME      = TEME
TIME_SYSTEM    = UTC
MEAN_ELEMENT_THEORY = SGP/SGP4

EPOCH          = 2025-12-10T06:39:08.237952
MEAN_MOTION    = 15.59004320
ECCENTRICITY   = .00052507
INCLINATION    = 51.6298
RA_OF_ASC_NODE = 152.3458
ARG_OF_PERICENTER = 191.2269
MEAN_ANOMALY   = 168.8608

EPHEMERIS_TYPE = 0
CLASSIFICATION_TYPE = U
NORAD_CAT_ID   = 65943
ELEMENT_SET_NO = 999
REV_AT_EPOCH   = 947
BSTAR          = .12588803E-2
MEAN_MOTION_DOT = .100705E-2
MEAN_MOTION_DDOT = 0

CCSDS_OMM_VERS = 2.0
CREATION_DATE  = 
ORIGINATOR     = 

OBJECT_NAME    = HRC MONOBLOCK CAMERA
OBJECT_ID      = 1998-067XR
CENTER_NAME    = EARTH
REF_FRAME      = TEME
TIME_SYSTEM    = UTC
MEAN_ELEMENT_THEORY = SGP/SGP4

EPOCH          = 2025-12-10T01:53:33.064224
MEAN_MOTION    = 15.53848796
ECCENTRICITY   = .00036764
INCLINATION    = 51.6294
RA_OF_ASC_NODE = 154.7721
ARG_OF_PERICENTER = 173.0963
MEAN_ANOMALY   = 187.0078

EPHEMERIS_TYPE = 0
CLASSIFICATION_TYPE = U
NORAD_CAT_ID   = 66052
ELEMENT_SET_NO = 999
REV_AT_EPOCH   = 842
BSTAR          = .70942813E-3
MEAN_MOTION_DOT = .46287E-3
MEAN_MOTION_DDOT = 0

CCSDS_OMM_VERS = 2.0
CREATION_DATE  = 
ORIGINATOR     = 

OBJECT_NAME    = HTV-X1
OBJECT_ID      = 2025-241A
CENTER_NAME    = EARTH
REF_FRAME      = TEME
TIME_SYSTEM    = UTC
MEAN_ELEMENT_THEORY = SGP/SGP4

EPOCH          = 2025-12-10T03:42:55.481184
MEAN_MOTION    = 15.49465664
ECCENTRICITY   = .0003395
INCLINATION    = 51.6306
RA_OF_ASC_NODE = 155.2782
ARG_OF_PERICENTER = 228.7876
MEAN_ANOMALY   = 131.2820

EPHEMERIS_TYPE = 0
CLASSIFICATION_TYPE = U
NORAD_CAT_ID   = 66174
ELEMENT_SET_NO = 999
REV_AT_EPOCH   = 51
BSTAR          = .27248017E-3
MEAN_MOTION_DOT = .14837E-3
MEAN_MOTION_DDOT = 0

CCSDS_OMM_VERS = 2.0
CREATION_DATE  = 
ORIGINATOR     = 

OBJECT_NAME    = SZ-21 MODULE
OBJECT_ID      = 2025-246C
CENTER_NAME    = EARTH
REF_FRAME      = TEME
TIME_SYSTEM    = UTC
MEAN_ELEMENT_THEORY = SGP/SGP4

EPOCH          = 2025-12-10T11:51:01.003104
MEAN_MOTION    = 15.62311534
ECCENTRICITY   = .0006278
INCLINATION    = 41.4772
RA_OF_ASC_NODE = 29.7454
ARG_OF_PERICENTER = 248.1298
MEAN_ANOMALY   = 111.8874

EPHEMERIS_TYPE = 0
CLASSIFICATION_TYPE = U
NORAD_CAT_ID   = 66515
ELEMENT_SET_NO = 999
REV_AT_EPOCH   = 409
BSTAR          = .39111E-3
MEAN_MOTION_DOT = .35412E-3
MEAN_MOTION_DDOT = 0

CCSDS_OMM_VERS = 2.0
CREATION_DATE  = 
ORIGINATOR     = 

OBJECT_NAME    = SHENZHOU-22
OBJECT_ID      = 2025-272A
CENTER_NAME    = EARTH
REF_FRAME      = TEME
TIME_SYSTEM    = UTC
MEAN_ELEMENT_THEORY = SGP/SGP4

EPOCH          = 2025-12-10T06:43:57.761760
MEAN_MOTION    = 15.59014677
ECCENTRICITY   = .00088021
INCLINATION    = 41.4682
RA_OF_ASC_NODE = 31.6356
ARG_OF_PERICENTER = 10.5172
MEAN_ANOMALY   = 349.5849

EPHEMERIS_TYPE = 0
CLASSIFICATION_TYPE = U
NORAD_CAT_ID   = 66645
ELEMENT_SET_NO = 999
REV_AT_EPOCH   = 26357
BSTAR          = .43406543E-3
MEAN_MOTION_DOT = .34646E-3
MEAN_MOTION_DDOT = 0

